satname,norad_id,inclination_deg,eccentricity,mean_motion_rev_per_day,perigee_km,apogee_km,l1,l2
STARLINK-1168,45072,53.0526,0.000136,15.06401547,546.2649698510859,548.1486633692039,1 45072U 20006AE  25298.84381084  .00001871  00000+0  14443-3 0  9993,2 45072  53.0526 151.9656 0001360  89.9704 270.1441 15.06401547316418
STARLINK-1172,45074,53.0539,0.0001331,15.06416512,546.239194341354,548.082708656043,1 45074U 20006AG  25298.85484463  .00002889  00000+0  21267-3 0  9993,2 45074  53.0539 151.9182 0001331  94.1535 265.9606 15.06416512316419
STARLINK-1153,45080,53.0526,0.0001309,15.06383422,546.3558328093595,548.1689023637946,1 45080U 20006AN  25298.83273928 -.00007231  00000+0 -46726-3 0  9995,2 45080  53.0526 152.0155 0001309  97.4339 262.6799 15.06383422316417
STARLINK-1151,45081,53.0523,0.0001528,15.06399168,546.1559142503338,548.2723015489064,1 45081U 20006AP  25298.81801066  .00004232  00000+0  30283-3 0  9991,2 45081  53.0523 152.1567 0001528  91.0428 269.0736 15.06399168316411
STARLINK-1190,45083,53.0409,0.0003175,15.86970009,308.65967732999707,312.9071417900668,1 45083U 20006AR  25298.91668980  .00312013  00000+0  11440-2 0  9992,2 45083  53.0409 105.6874 0003175 202.2202 107.0173 15.86970009  5997
STARLINK-1173,45084,53.0339,0.0007077,16.15603327,226.83868358424297,236.19398691495553,1 45084U 20006AS  25298.85723976  .01243164  11250-2  88654-3 0  9998,2 45084  53.0339  65.8359 0007077 339.8694  20.2062 16.15603327317620
STARLINK-1185,45087,53.0537,0.0001321,15.06406872,546.2756605658296,548.1053320903593,1 45087U 20006AV  25298.86039252  .00002060  00000+0  15710-3 0  9997,2 45087  53.0537 131.8888 0001321  92.1375 267.9765 15.06406872316708
STARLINK-1183,45088,53.0528,0.0001241,15.06407804,546.3282071177046,548.047072693329,1 45088U 20006AW  25298.81615940  .00003420  00000+0  24830-3 0  9991,2 45088  53.0528 132.0897 0001241  94.8532 265.2598 15.06407804316696
STARLINK-1176,45090,53.0413,0.0007471,16.07783241,247.9773593156142,257.88550176452645,1 45090U 20006AY  25298.65956684  .00794316  34430-3  94881-3 0  9991,2 45090  53.0413  65.5550 0007471 347.5209  12.5638 16.07783241317613
STARLINK-1142,45093,53.0348,0.00029,15.59506644,387.12143500563434,391.04642314449757,1 45093U 20006BB  25298.91668980  .00146172  00000+0  17828-2 0  9990,2 45093  53.0348  67.0682 0002900 310.5479 216.6481 15.59506644  5924
STARLINK-1152,45096,53.0492,0.0008497,15.23320695,489.99188347964446,501.67350758022803,1 45096U 20006BE  25298.75420591  .00059252  00000+0  24560-2 0  9992,2 45096  53.0492 115.2773 0008497 144.7439 215.4121 15.23320695316928
STARLINK-1184,45098,53.054,0.0001462,15.0640345,546.1884997920579,548.21346861864,1 45098U 20006BG  25298.83091322  .00002847  00000+0  20993-3 0  9994,2 45098  53.0540 132.0229 0001462 103.0634 257.0518 15.06403450316695
STARLINK-1193,45100,53.0539,0.0001474,15.06407496,546.1677908821048,548.2093768642299,1 45100U 20006BJ  25298.82721728  .00001372  00000+0  11094-3 0  9991,2 45100  53.0539 132.0387 0001474  86.5360 273.5797 15.06407496316692
STARLINK-1143,45179,53.0543,0.0008215,15.39600908,441.68149078590613,452.8956650103937,1 45179U 20012B   25298.61232340  .00030835  00000+0  77745-3 0  9999,2 45179  53.0543 258.0977 0008215  28.3631 331.7818 15.39600908314971
STARLINK-1202,45183,53.0538,0.0001318,15.06399505,546.3003139025086,548.1258361822893,1 45183U 20012F   25298.69083700 -.00000412  00000+0 -87724-5 0  9996,2 45183  53.0538 292.6540 0001318  81.1385 278.9753 15.06399505314499
STARLINK-1216,45185,53.0539,0.0001263,15.06404543,546.322964568265,548.0723040968978,1 45185U 20012H   25298.68346346 -.00001071  00000+0 -53021-4 0  9999,2 45185  53.0539 292.6815 0001263  64.5988 295.5131 15.06404543314438
STARLINK-1225,45187,53.0563,0.0001287,15.06399986,546.3203084813322,548.1028932111903,1 45187U 20012K   25298.70188840 -.00000035  00000+0  16543-4 0  9993,2 45187  53.0563 292.6012 0001287  86.0372 274.0764 15.06399986314481
STARLINK-1230,45189,53.0541,0.0001456,15.06400042,546.2030984830362,548.2197599456231,1 45189U 20012M   25298.70557579  .00001060  00000+0  90032-4 0  9997,2 45189  53.0541 292.5869 0001456  86.0343 274.0812 15.06400042311717
STARLINK-1234,45190,53.0533,0.0001697,15.34997043,459.76868824520534,462.0898673398897,1 45190U 20012N   25298.91668980  .00116027  00000+0  33284-2 0  9995,2 45190  53.0533 249.7869 0001697  94.9142 101.7725 15.34997043  5538
STARLINK-1269,45197,53.0544,0.0001361,15.06397248,546.2774513480872,548.1625335214267,1 45197U 20012V   25298.71664395  .00001234  00000+0  10174-3 0  9993,2 45197  53.0544 292.5395 0001361  88.0551 272.0594 15.06397248314464
STARLINK-1154,45198,53.0553,0.0001524,15.06397454,546.1639367631496,548.2747853820047,1 45198U 20012W   25298.64108072 -.00000169  00000+0  75573-5 0  9994,2 45198  53.0553 272.8777 0001524  99.3909 260.7252 15.06397454314704
STARLINK-1199,45201,53.0547,0.0001423,15.0639671,546.2361627981218,548.2071198674448,1 45201U 20012Z   25298.65213839 -.00000008  00000+0  18345-4 0  9993,2 45201  53.0547 272.8263 0001423  83.9140 276.2011 15.06396710314761
STARLINK-1209,45206,53.0558,0.000197,15.300505,474.31128751586493,477.01168411927665,1 45206U 20012AE  25298.91668980  .00017980  00000+0  62052-3 0  9997,2 45206  53.0558 250.1717 0001970  89.3799 251.8135 15.30050500  5683
STARLINK-1210,45207,53.025,0.0012722,15.55132985,393.1406932295977,410.3914786414525,1 45207U 20012AF  25298.91668980  .00097943  00000+0  14129-2 0  9996,2 45207  53.0250 213.4509 0012722  46.9144 323.7149 15.55132985  5863
STARLINK-1231,45212,53.0522,0.0005903,15.11815935,526.5838066381948,534.7403348210992,1 45212U 20012AL  25298.62341448  .00046728  00000+0  27029-2 0  9995,2 45212  53.0522 271.5257 0005903  21.1965 338.9270 15.11815935314732
STARLINK-1271,45217,53.0542,0.0001589,15.06416011,546.0620568754384,548.2629170523942,1 45217U 20012AR  25298.63738851  .00000964  00000+0  83576-4 0  9992,2 45217  53.0542 272.8909 0001589  83.2219 276.8951 15.06416011314769
STARLINK-1191,45222,53.0553,0.0001503,15.0640624,546.1515562891936,548.2333103168448,1 45222U 20012AW  25298.58025382  .00000557  00000+0  56249-4 0  9995,2 45222  53.0553 253.1481 0001503  95.1232 264.9929 15.06406240315034
STARLINK-1212,45223,53.0543,0.0001507,15.06387239,546.20701291976,548.2943247631492,1 45223U 20012AX  25298.59878654 -.00000108  00000+0  11648-4 0  9992,2 45223  53.0543 253.7198 0001507  94.5180 265.5981 15.06387239315035
STARLINK-1215,45225,53.0547,0.0001578,15.06411566,546.0832956321274,548.2689244496569,1 45225U 20012AZ  25298.28907808  .00008275  00000+0  57361-3 0  9997,2 45225  53.0547 254.4534 0001578  98.2775 261.8393 15.06411566314948
STARLINK-1221,45227,53.066,0.0001782,15.36526475,455.17228593064647,457.6081114242543,1 45227U 20012BB  25298.85627729  .00016110  00000+0  45512-3 0  9995,2 45227  53.0660 185.9309 0001782 335.4840  24.6077 15.36526475315944
STARLINK-1222,45228,53.0557,0.0001569,15.06411793,546.0888328097672,548.2619958453834,1 45228U 20012BC  25298.18954588  .00002485  00000+0  18561-3 0  9992,2 45228  53.0557 254.9028 0001569 106.4683 253.6478 15.06411793314861
STARLINK-1226,45229,53.0552,0.0001276,15.06409192,546.2997150441788,548.0670568066662,1 45229U 20012BD  25298.61712071  .00000353  00000+0  42561-4 0  9990,2 45229  53.0552 252.9822 0001276  83.0589 277.0545 15.06409192314930
STARLINK-1227,45230,53.0538,0.0001283,15.0639317,546.3439660779759,548.1210158893628,1 45230U 20012BE  25298.61343963  .00001646  00000+0  12937-3 0  9991,2 45230  53.0538 252.9977 0001283 107.5382 252.5747 15.06393170315052
STARLINK-1246,45235,53.0542,0.0001271,15.06395963,546.3437174151704,548.1041441637781,1 45235U 20012BK  25298.69452374  .00001564  00000+0  12387-3 0  9999,2 45235  53.0542 292.6344 0001271  84.6164 275.4969 15.06395963314513
STARLINK-1270,45237,53.0544,0.0001512,15.06410048,546.133654390951,548.227870482312,1 45237U 20012BM  25298.30012061  .00002077  00000+0  15822-3 0  9991,2 45237  53.0544 254.4061 0001512  87.4802 272.6360 15.06410048314995
STARLINK-1279,45360,53.0532,8.57e-05,15.33242893,465.5580138385949,466.73112369948285,1 45360U 20019A   25298.91668980  .00008674  00000+0  27737-3 0  9996,2 45360  53.0532  20.1309 0000857  57.3682 327.8134 15.33242893  5782
STARLINK-1301,45361,53.0522,0.0001173,15.3558008,458.39602075002495,460.00005955044435,1 45361U 20019B   25298.91668980  .00026073  00000+0  75140-3 0  9991,2 45361  53.0522  29.9558 0001173  50.4163 130.2052 15.35580080  5741
STARLINK-1306,45362,53.0484,0.0006135,15.67436621,362.102477187389,370.3778279535927,1 45362U 20019C   25298.91668980  .00140073  00000+0  12520-2 0  9991,2 45362  53.0484  21.4324 0006135 273.4271  89.1205 15.67436621  5880
STARLINK-1262,45366,53.056,0.000134,15.06428012,546.1977213204327,548.0536917257814,1 45366U 20019G   25298.60973304 -.00003042  00000+0 -18527-3 0  9990,2 45366  53.0560  53.0125 0001340  88.9810 271.1332 15.06428012309373
STARLINK-1273,45367,53.0559,0.0001215,15.06410117,546.3391248814869,548.0219770463718,1 45367U 20019H   25298.69819249 -.00000089  00000+0  12914-4 0  9999,2 45367  53.0559  52.6181 0001215  89.0167 271.0962 15.06410117309383
STARLINK-1276,45368,53.057,0.0001473,15.06369225,546.2857627503736,548.3259982229647,1 45368U 20019J   25298.73507943 -.00003009  00000+0 -18333-3 0  9996,2 45368  53.0570  52.4545 0001473  67.6174 292.4971 15.06369225309396
STARLINK-1277,45369,53.0543,0.0001056,15.06481379,546.2308637810529,547.6934447224312,1 45369U 20019K   25298.72770653  .00011540  00000+0  79063-3 0  9990,2 45369  53.0543  53.1151 0001056  76.0123 284.0984 15.06481379309388
STARLINK-1281,45370,53.0557,0.0001307,15.06400897,546.3036660666285,548.1139514610386,1 45370U 20019L   25298.59130448  .00002211  00000+0  16729-3 0  9994,2 45370  53.0557  53.0989 0001307  80.5523 279.5614 15.06400897309370
